[{"OBJECT_NAME":"NETSAT-1","OBJECT_ID":"2020-068W","EPOCH":"2026-03-09T22:42:38.711232","MEAN_MOTION":15.32042482,"ECCENTRICITY":0.00057337,"INCLINATION":97.8751,"RA_OF_ASC_NODE":63.2583,"ARG_OF_PERICENTER":18.5877,"MEAN_ANOMALY":341.5572,"EPHEMERIS_TYPE":0,"CLASSIFICATION_TYPE":"U","NORAD_CAT_ID":46506,"ELEMENT_SET_NO":999,"REV_AT_EPOCH":30009,"BSTAR":0.00059222329,"MEAN_MOTION_DOT":0.00018269,"MEAN_MOTION_DDOT":0},{"OBJECT_NAME":"STARLINK-2391","OBJECT_ID":"2021-018Z","EPOCH":"2026-03-09T21:58:31.164672","MEAN_MOTION":15.30195916,"ECCENTRICITY":9.533e-5,"INCLINATION":53.16,"RA_OF_ASC_NODE":254.5567,"ARG_OF_PERICENTER":85.2357,"MEAN_ANOMALY":274.8753,"EPHEMERIS_TYPE":0,"CLASSIFICATION_TYPE":"U","NORAD_CAT_ID":47810,"ELEMENT_SET_NO":999,"REV_AT_EPOCH":27663,"BSTAR":-0.00010784485,"MEAN_MOTION_DOT":-3.551e-5,"MEAN_MOTION_DDOT":0}]
